[{"OBJECT_NAME":"STARLINK-4115","OBJECT_ID":"2022-076AY","EPOCH":"2026-03-09T10:49:35.714784","MEAN_MOTION":15.08849114,"ECCENTRICITY":0.00012399,"INCLINATION":53.2168,"RA_OF_ASC_NODE":85.1937,"ARG_OF_PERICENTER":93.7555,"MEAN_ANOMALY":266.3579,"EPHEMERIS_TYPE":0,"CLASSIFICATION_TYPE":"U","NORAD_CAT_ID":53032,"ELEMENT_SET_NO":999,"REV_AT_EPOCH":20295,"BSTAR":5.109472e-6,"MEAN_MOTION_DOT":-2.07e-6,"MEAN_MOTION_DDOT":0},{"OBJECT_NAME":"OBJECT L","OBJECT_ID":"2024-205L","EPOCH":"2026-03-07T03:22:40.585728","MEAN_MOTION":15.10822925,"ECCENTRICITY":0.00547724,"INCLINATION":97.4213,"RA_OF_ASC_NODE":140.2188,"ARG_OF_PERICENTER":346.2042,"MEAN_ANOMALY":13.7688,"EPHEMERIS_TYPE":0,"CLASSIFICATION_TYPE":"U","NORAD_CAT_ID":61904,"ELEMENT_SET_NO":999,"REV_AT_EPOCH":7282,"BSTAR":0.00079283043,"MEAN_MOTION_DOT":0.00013606,"MEAN_MOTION_DDOT":0}]
