STARLINK-4115           
1 53032U 22076AY  26068.45110781 -.00000207  00000+0  51095-5 0  9993
2 53032  53.2168  85.1937 0001239  93.7555 266.3579 15.08849114202959
2024-205L               
1 61904U 24205L   26066.14074752  .00013606  00000+0  79283-3 0  9990
2 61904  97.4213 140.2188 0054772 346.2042  13.7688 15.10822925 72825
